PERSEUS-M1              
1 40039U 14033AF  26166.43049223  .00001103  00000+0  10467-3 0  9990
2 40039  97.9642 110.5335 0010432 308.1412  51.8868 14.95626197650379
POLYITAN-1              
1 40042U 14033AJ  26166.02911136  .00017749  00000+0  55495-3 0  9993
2 40042  98.0936 192.0858 0008489 147.5892 212.5872 15.33192699653262
TIGRISAT                
1 40043U 14033AK  26166.36413470  .00001914  00000+0  22485-3 0  9999
2 40043  97.7826 316.4173 0050644  81.0598 279.6345 14.85156509645350
AEROCUBE 6A             
1 40045U 14033AM  26166.42054340  .00004928  00000+0  41492-3 0  9992
2 40045  97.7235 333.3875 0039064  24.0890 336.2148 14.98093876646351
AEROCUBE 6B             
1 40046U 14033AN  26166.42459281  .00004308  00000+0  35005-3 0  9991
2 40046  97.7236 333.1780 0038455  15.4316 344.8070 14.99555300646496
CANX-4                  
1 40055U 14034C   26166.53068205  .00000801  00000+0  11004-3 0  9993
2 40055  98.3124  41.7830 0013282  22.1909 337.9874 14.81262041644289
CANX-5                  
1 40056U 14034D   26166.52913455  .00000806  00000+0  11058-3 0  9993
2 40056  98.3126  41.8248 0013289  22.3751 337.8037 14.81279243635091
UKUBE-1                 
1 40074U 14037F   26166.51547782  .00006665  00000+0  37622-3 0  9995
2 40074  98.4228 169.6117 0002584 134.1984 225.9457 15.13531578648304
BRITE-PL2 (HEWELIUSZ)   
1 40119U 14049B   26166.29777389  .00001359  00000+0  13089-3 0  9997
2 40119  97.9096 278.2832 0015224 114.0820 246.1994 14.94587421641167
AEROCUBE 5C             
1 40965U 15058B   26166.56155016  .00002043  00000+0  18827-3 0  9990
2 40965  64.7679 267.6472 0130681  63.9056 297.5436 14.91447633365414
AEROCUBE 7              
1 40966U 15058C   26166.49566373  .00002831  00000+0  23334-3 0  9999
2 40966  64.7627 250.1146 0120413  62.3578 298.9698 14.95716759365706
FOX-1A (AO-85)          
1 40967U 15058D   26166.54154159  .00002095  00000+0  19529-3 0  9994
2 40967  64.7762 284.0978 0130352  57.2296 304.1297 14.90963105113327
SINOD-D 1               
1 40968U 15058E   26166.54067309  .00002758  00000+0  22734-3 0  9993
2 40968  64.7760 264.0688 0118948  53.7334 307.4700 14.95897303116412
SNAP-3 ALICE            
1 40970U 15058G   26166.25037528  .00095622  00000+0  11565-2 0  9995
2 40970  64.7500 110.6240 0028652  14.1529 346.0413 15.59675006116589
LMRST-SAT               
1 40971U 15058H   26166.42933344  .00001854  00000+0  17564-3 0  9996
2 40971  64.7767 280.7808 0131981  59.3116 302.0924 14.90583096113292
SNAP-3 EDDIE            
1 40972U 15058J   26166.43421720  .00104076  00000+0  11968-2 0  9999
2 40972  64.7429 100.7267 0028139  17.9086 342.3044 15.60973752118750
PROPCUBE 3              
1 40973U 15058K   26166.53616005  .00002455  00000+0  21059-3 0  9994
2 40973  64.7688 257.6942 0123954  60.5643 300.7773 14.94250037114555
BISONSAT                
1 40974U 15058L   26166.38418892  .00008868  00000+0  43228-3 0  9998
2 40974  64.7577 179.4739 0078880  48.0183 312.7625 15.16153901115349
SNAP-3 JIMI             
1 40975U 15058M   26166.52497091  .00003739  00000+0  26264-3 0  9996
2 40975  64.7640 225.0320 0106067  56.0418 305.0725 15.02286136113979
PROPCUBE 1 (FLORA)      
1 40976U 15058N   26166.51695645  .00002048  00000+0  19990-3 0  9991
2 40976  64.7756 300.4122 0130664  61.5755 299.8452 14.89215783116010
SINOD-D 3               
1 40977U 15058P   26166.50064084  .00002750  00000+0  23822-3 0  9997
2 40977  64.7737 281.0853 0119175  58.7985 302.4744 14.94007278114503
HORYU-4                 
1 41340U 16012D   26166.43547623  .00392649  54783-4  97992-3 0  9990
2 41340  30.9849  91.8834 0005149 261.3375  98.6703 15.94546005570538
RAVAN                   
1 41849U 16067B   26166.24139347  .00043365  00000+0  65707-3 0  9998
2 41849  97.9893  55.5895 0004713  37.6149 322.5432 15.54518227527392
CELTEE 1                
1 41850U 16067C   26166.36344657  .00004482  00000+0  21375-3 0  9995
2 41850  98.0674  32.8064 0000857 123.3354 236.7961 15.19667122525600
OPTICUBE 04             
1 41851U 16067D   26166.48842736  .00001849  00000+0  11900-3 0  9997
2 41851  98.0695  18.6836 0016823 120.8764 239.4120 15.09652243524917
AEROCUBE 8D             
1 41852U 16067E   26166.44890198  .00006288  00000+0  25996-3 0  9991
2 41852  98.0683  36.4883 0004607 127.5368 232.6287 15.24376777525806
AEROCUBE 8C             
1 41853U 16067F   26166.53980472  .00006090  00000+0  24994-3 0  9995
2 41853  98.0553  33.8160 0006667  73.5948 286.6020 15.24626627525811
CORVUS BC2              
1 42846U 17042X   26166.40124384  .00003591  00000+0  24801-3 0  9990
2 42846  97.4057 327.8202 0014226 116.1599 244.1094 15.06284861486798
CORVUS BC1              
1 42847U 17042Y   26166.39605622  .00003410  00000+0  23472-3 0  9991
2 42847  97.4092 328.6281 0013241  94.7493 265.5247 15.06455609486825
MAKERSAT 0              
1 43016U 17073D   26166.15522328  .00014625  00000+0  39907-3 0  9999
2 43016  97.4630  48.6587 0105182 280.3452  78.5946 15.32039776466158
